OBJECT B                
1 51825U 22019B   24362.77522102  .00026779  00000+0  88574-3 0  9993
2 51825  97.4089  72.6882 0010735 275.7691  84.2326 15.31264299156757
